start=new Date('2023-03-29T00:00:00.000Z').valueOf();
sats=[{"ECCENTRICITY":"0.00033350","OBJECT_NAME":"STARLINK-5617","MEAN_ANOMALY":"5.8706","TIME_SYSTEM":"UTC","COUNTRY_CODE":"US","MEAN_MOTION_DOT":"-0.00910776","OBJECT_TYPE":"PAYLOAD","SEMIMAJOR_AXIS":"6759.824","TLE_LINE1":"1 55753U 23028N   23087.91667824 -.00910776  00000-0 -11390-1 0  9990","MEAN_MOTION":"15.62067139","REV_AT_EPOCH":"130","PERIAPSIS":"379.434","OBJECT_ID":"2023-028N","TLE_LINE2":"2 55753  70.0010  84.5437 0003335 265.2980   5.8706 15.62067139  1302","SITE":"AFWTR","ELEMENT_SET_NO":"999","EPOCH":"2023-03-28T22:00:00.999936","EPHEMERIS_TYPE":"0","NORAD_CAT_ID":"55753","INCLINATION":"70.0010","FILE":"3873921","PERIOD":"92.186","RA_OF_ASC_NODE":"84.5437","ARG_OF_PERICENTER":"265.2980","CLASSIFICATION_TYPE":"U","BSTAR":"-0.01139000000000","REF_FRAME":"TEME","CENTER_NAME":"EARTH","MEAN_MOTION_DDOT":"0.0000000000000","DECAY_DATE":null,"MEAN_ELEMENT_THEORY":"SGP4","LAUNCH_DATE":"2023-03-03","RCS_SIZE":"LARGE","APOAPSIS":"383.943","GP_ID":"229068752"},{"TLE_LINE2":"2 55754  70.0014  84.3080 0003529 265.6265 117.8762 15.61990306  4639","REV_AT_EPOCH":"463","MEAN_MOTION":"15.61990306","PERIAPSIS":"379.525","OBJECT_ID":"2023-028P","TIME_SYSTEM":"UTC","OBJECT_TYPE":"PAYLOAD","COUNTRY_CODE":"US","MEAN_MOTION_DOT":"-0.00953852","SEMIMAJOR_AXIS":"6760.045","TLE_LINE1":"1 55754U 23028P   23088.00001157 -.00953852  00000-0 -12018-1 0  9993","ECCENTRICITY":"0.00035290","OBJECT_NAME":"STARLINK-5612","MEAN_ANOMALY":"117.8762","MEAN_MOTION_DDOT":"0.0000000000000","DECAY_DATE":null,"MEAN_ELEMENT_THEORY":"SGP4","LAUNCH_DATE":"2023-03-03","RCS_SIZE":"LARGE","APOAPSIS":"384.296","GP_ID":"229041372","REF_FRAME":"TEME","CENTER_NAME":"EARTH","FILE":"3873812","PERIOD":"92.190","RA_OF_ASC_NODE":"84.3080","ARG_OF_PERICENTER":"265.6265","BSTAR":"-0.01201800000000","CLASSIFICATION_TYPE":"U","SITE":"AFWTR","ELEMENT_SET_NO":"999","EPOCH":"2023-03-29T00:00:00.999648","EPHEMERIS_TYPE":"0","NORAD_CAT_ID":"55754","INCLINATION":"70.0014"},{"TLE_LINE2":"2 55755  70.0018  85.0003 0001916 304.7314  55.3701 15.69363985  4594","MEAN_MOTION":"15.69363985","REV_AT_EPOCH":"459","PERIAPSIS":"359.428","OBJECT_ID":"2023-028Q","COUNTRY_CODE":"US","OBJECT_TYPE":"PAYLOAD","MEAN_MOTION_DOT":"-0.00229596","TIME_SYSTEM":"UTC","SEMIMAJOR_AXIS":"6738.854","TLE_LINE1":"1 55755U 23028Q   23087.73106372 -.00229596  00000-0 -20069-2 0  9995","ECCENTRICITY":"0.00019160","OBJECT_NAME":"STARLINK-5619","MEAN_ANOMALY":"55.3701","MEAN_MOTION_DDOT":"0.0000000000000","MEAN_ELEMENT_THEORY":"SGP4","DECAY_DATE":null,"LAUNCH_DATE":"2023-03-03","GP_ID":"229069754","APOAPSIS":"362.010","RCS_SIZE":"LARGE","REF_FRAME":"TEME","CENTER_NAME":"EARTH","PERIOD":"91.757","FILE":"3873921","RA_OF_ASC_NODE":"85.0003","ARG_OF_PERICENTER":"304.7314","BSTAR":"-0.00200690000000","CLASSIFICATION_TYPE":"U","SITE":"AFWTR","ELEMENT_SET_NO":"999","EPOCH":"2023-03-28T17:32:43.905408","EPHEMERIS_TYPE":"0","NORAD_CAT_ID":"55755","INCLINATION":"70.0018"},{"TLE_LINE2":"2 55756  70.0015  84.3024 0003517 265.8428 122.4248 15.62076063  4626","OBJECT_ID":"2023-028R","MEAN_MOTION":"15.62076063","REV_AT_EPOCH":"462","PERIAPSIS":"379.286","TLE_LINE1":"1 55756U 23028R   23088.00001157 -.00960146  00000-0 -12065-1 0  9991","COUNTRY_CODE":"US","OBJECT_TYPE":"PAYLOAD","MEAN_MOTION_DOT":"-0.00960146","TIME_SYSTEM":"UTC","SEMIMAJOR_AXIS":"6759.798","OBJECT_NAME":"STARLINK-5614","MEAN_ANOMALY":"122.4248","ECCENTRICITY":"0.00035170","LAUNCH_DATE":"2023-03-03","APOAPSIS":"384.040","GP_ID":"229041252","RCS_SIZE":"LARGE","MEAN_MOTION_DDOT":"0.0000000000000","MEAN_ELEMENT_THEORY":"SGP4","DECAY_DATE":null,"REF_FRAME":"TEME","CENTER_NAME":"EARTH","ARG_OF_PERICENTER":"265.8428","BSTAR":"-0.01206500000000","CLASSIFICATION_TYPE":"U","PERIOD":"92.185","FILE":"3873801","RA_OF_ASC_NODE":"84.3024","EPHEMERIS_TYPE":"0","NORAD_CAT_ID":"55756","INCLINATION":"70.0015","SITE":"AFWTR","ELEMENT_SET_NO":"999","EPOCH":"2023-03-29T00:00:00.999648"},{"EPOCH":"2023-03-28T22:00:00.999936","SITE":"AFWTR","ELEMENT_SET_NO":"999","NORAD_CAT_ID":"55757","INCLINATION":"70.0012","EPHEMERIS_TYPE":"0","RA_OF_ASC_NODE":"84.5405","FILE":"3873921","PERIOD":"92.183","CLASSIFICATION_TYPE":"U","BSTAR":"-0.01123800000000","ARG_OF_PERICENTER":"263.5536","CENTER_NAME":"EARTH","REF_FRAME":"TEME","DECAY_DATE":null,"MEAN_ELEMENT_THEORY":"SGP4","MEAN_MOTION_DDOT":"0.0000000000000","RCS_SIZE":"LARGE","APOAPSIS":"383.911","GP_ID":"229069253","LAUNCH_DATE":"2023-03-03","ECCENTRICITY":"0.00034410","MEAN_ANOMALY":"10.6083","OBJECT_NAME":"STARLINK-5544","SEMIMAJOR_AXIS":"6759.720","TIME_SYSTEM":"UTC","OBJECT_TYPE":"PAYLOAD","COUNTRY_CODE":"US","MEAN_MOTION_DOT":"-0.00900861","TLE_LINE1":"1 55757U 23028S   23087.91667824 -.00900861  00000-0 -11238-1 0  9999","PERIAPSIS":"379.259","MEAN_MOTION":"15.62103088","REV_AT_EPOCH":"130","OBJECT_ID":"2023-028S","TLE_LINE2":"2 55757  70.0012  84.5405 0003441 263.5536  10.6083 15.62103088  1305"},{"OBJECT_NAME":"STARLINK-5072","MEAN_ANOMALY":"10.4249","ECCENTRICITY":"0.00034520","TLE_LINE1":"1 55758U 23028T   23087.91667824 -.00901950  00000-0 -11243-1 0  9996","TIME_SYSTEM":"UTC","COUNTRY_CODE":"US","MEAN_MOTION_DOT":"-0.00901950","OBJECT_TYPE":"PAYLOAD","SEMIMAJOR_AXIS":"6759.655","OBJECT_ID":"2023-028T","MEAN_MOTION":"15.62125492","REV_AT_EPOCH":"130","PERIAPSIS":"379.187","TLE_LINE2":"2 55758  70.0012  84.5380 0003452 265.8444  10.4249 15.62125492  1308","EPHEMERIS_TYPE":"0","NORAD_CAT_ID":"55758","INCLINATION":"70.0012","SITE":"AFWTR","ELEMENT_SET_NO":"999","EPOCH":"2023-03-28T22:00:00.999936","ARG_OF_PERICENTER":"265.8444","BSTAR":"-0.01124300000000","CLASSIFICATION_TYPE":"U","FILE":"3873921","PERIOD":"92.182","RA_OF_ASC_NODE":"84.5380","REF_FRAME":"TEME","CENTER_NAME":"EARTH","LAUNCH_DATE":"2023-03-03","RCS_SIZE":"LARGE","GP_ID":"229069504","APOAPSIS":"383.854","MEAN_MOTION_DDOT":"0.0000000000000","DECAY_DATE":null,"MEAN_ELEMENT_THEORY":"SGP4"},{"REF_FRAME":"TEME","CENTER_NAME":"EARTH","MEAN_MOTION_DDOT":"0.0000000000000","MEAN_ELEMENT_THEORY":"SGP4","DECAY_DATE":null,"LAUNCH_DATE":"2023-03-03","GP_ID":"229070255","APOAPSIS":"324.698","RCS_SIZE":"LARGE","SITE":"AFWTR","ELEMENT_SET_NO":"999","EPOCH":"2023-03-28T22:00:00.999936","EPHEMERIS_TYPE":"0","INCLINATION":"69.9913","NORAD_CAT_ID":"55759","PERIOD":"90.986","FILE":"3873921","RA_OF_ASC_NODE":"84.0156","ARG_OF_PERICENTER":"243.5537","BSTAR":"0.00115370000000","CLASSIFICATION_TYPE":"U","MEAN_MOTION":"15.82669076","REV_AT_EPOCH":"130","PERIAPSIS":"321.098","OBJECT_ID":"2023-028U","TLE_LINE2":"2 55759  69.9913  84.0156 0002686 243.5537 108.1497 15.82669076  1309","ECCENTRICITY":"0.00026860","OBJECT_NAME":"STARLINK-5081","MEAN_ANOMALY":"108.1497","COUNTRY_CODE":"US","OBJECT_TYPE":"PAYLOAD","MEAN_MOTION_DOT":"0.00249535","TIME_SYSTEM":"UTC","SEMIMAJOR_AXIS":"6701.033","TLE_LINE1":"1 55759U 23028U   23087.91667824  .00249535  00000-0  11537-2 0  9996"},{"COUNTRY_CODE":"US","MEAN_MOTION_DOT":"-0.00957490","OBJECT_TYPE":"PAYLOAD","TIME_SYSTEM":"UTC","SEMIMAJOR_AXIS":"6760.350","TLE_LINE1":"1 55760U 23028V   23088.08334491 -.00957490  00000-0 -12119-1 0  9992","ECCENTRICITY":"0.00033770","OBJECT_NAME":"STARLINK-5532","MEAN_ANOMALY":"227.6689","TLE_LINE2":"2 55760  70.0016  84.0715 0003377 268.1611 227.6689 15.61884853  4631","MEAN_MOTION":"15.61884853","REV_AT_EPOCH":"463","PERIAPSIS":"379.932","OBJECT_ID":"2023-028V","PERIOD":"92.196","FILE":"3873916","RA_OF_ASC_NODE":"84.0715","ARG_OF_PERICENTER":"268.1611","CLASSIFICATION_TYPE":"U","BSTAR":"-0.01211900000000","ELEMENT_SET_NO":"999","SITE":"AFWTR","EPOCH":"2023-03-29T02:00:01.000224","EPHEMERIS_TYPE":"0","NORAD_CAT_ID":"55760","INCLINATION":"70.0016","MEAN_MOTION_DDOT":"0.0000000000000","MEAN_ELEMENT_THEORY":"SGP4","DECAY_DATE":null,"LAUNCH_DATE":"2023-03-03","APOAPSIS":"384.498","GP_ID":"229043793","RCS_SIZE":"LARGE","CENTER_NAME":"EARTH","REF_FRAME":"TEME"},{"REF_FRAME":"TEME","CENTER_NAME":"EARTH","MEAN_MOTION_DDOT":"0.0000000000000","DECAY_DATE":null,"MEAN_ELEMENT_THEORY":"SGP4","LAUNCH_DATE":"2023-03-03","RCS_SIZE":"LARGE","GP_ID":"229068753","APOAPSIS":"360.622","SITE":"AFWTR","ELEMENT_SET_NO":"999","EPOCH":"2023-03-28T17:31:06.168000","EPHEMERIS_TYPE":"0","NORAD_CAT_ID":"55761","INCLINATION":"70.0018","FILE":"3873921","PERIOD":"91.724","RA_OF_ASC_NODE":"84.9961","ARG_OF_PERICENTER":"274.4427","BSTAR":"0.00001756700000","CLASSIFICATION_TYPE":"U","MEAN_MOTION":"15.69920772","REV_AT_EPOCH":"459","PERIAPSIS":"357.629","OBJECT_ID":"2023-028W","TLE_LINE2":"2 55761  70.0018  84.9961 0002221 274.4427  85.6515 15.69920772  4592","ECCENTRICITY":"0.00022210","OBJECT_NAME":"STARLINK-5611","MEAN_ANOMALY":"85.6515","TIME_SYSTEM":"UTC","COUNTRY_CODE":"US","OBJECT_TYPE":"PAYLOAD","MEAN_MOTION_DOT":"0.00001900","SEMIMAJOR_AXIS":"6737.261","TLE_LINE1":"1 55761U 23028W   23087.72993250  .00001900  00000-0  17567-4 0  9996"},{"TLE_LINE2":"2 55762  70.0021  84.9912 0002555 269.7680  90.3223 15.69926917  4597","OBJECT_ID":"2023-028X","REV_AT_EPOCH":"459","MEAN_MOTION":"15.69926917","PERIAPSIS":"357.387","TLE_LINE1":"1 55762U 23028X   23087.72950647  .00002900  00000-0  25878-4 0  9995","MEAN_MOTION_DOT":"0.00002900","COUNTRY_CODE":"US","OBJECT_TYPE":"PAYLOAD","TIME_SYSTEM":"UTC","SEMIMAJOR_AXIS":"6737.243","OBJECT_NAME":"STARLINK-5603","MEAN_ANOMALY":"90.3223","ECCENTRICITY":"0.00025550","LAUNCH_DATE":"2023-03-03","GP_ID":"229070005","APOAPSIS":"360.829","RCS_SIZE":"LARGE","MEAN_MOTION_DDOT":"0.0000000000000","MEAN_ELEMENT_THEORY":"SGP4","DECAY_DATE":null,"REF_FRAME":"TEME","CENTER_NAME":"EARTH","ARG_OF_PERICENTER":"269.7680","CLASSIFICATION_TYPE":"U","BSTAR":"0.00002587800000","PERIOD":"91.724","FILE":"3873921","RA_OF_ASC_NODE":"84.9912","EPHEMERIS_TYPE":"0","NORAD_CAT_ID":"55762","INCLINATION":"70.0021","ELEMENT_SET_NO":"999","SITE":"AFWTR","EPOCH":"2023-03-28T17:30:29.359008"}];
